{
    "links": {
        "self": "http://www.neowsapp.com/rest/v1/neo/54017329?api_key=iIulBulltgU6a56xZRHN4H3l9WmuAYTsLGpBGhQ2"
    },
    "id": "54017329",
    "neo_reference_id": "54017329",
    "name": "(2020 LA)",
    "designation": "2020 LA",
    "nasa_jpl_url": "http://ssd.jpl.nasa.gov/sbdb.cgi?sstr=54017329",
    "absolute_magnitude_h": 25.221,
    "estimated_diameter": {
        "kilometers": {
            "estimated_diameter_min": 0.0240079444,
            "estimated_diameter_max": 0.0536833957
        },
        "meters": {
            "estimated_diameter_min": 24.0079443984,
            "estimated_diameter_max": 53.6833956749
        },
        "miles": {
            "estimated_diameter_min": 0.0149178404,
            "estimated_diameter_max": 0.0333573053
        },
        "feet": {
            "estimated_diameter_min": 78.7662243001,
            "estimated_diameter_max": 176.126631866
        }
    },
    "is_potentially_hazardous_asteroid": false,
    "close_approach_data": [
        {
            "close_approach_date": "2020-06-06",
            "close_approach_date_full": "2020-Jun-06 18:03",
            "epoch_date_close_approach": 1591466580000,
            "relative_velocity": {
                "kilometers_per_second": "15.2965420123",
                "kilometers_per_hour": "55067.5512444506",
                "miles_per_hour": "34216.8348274199"
            },
            "miss_distance": {
                "astronomical": "0.0099426469",
                "lunar": "3.8676896441",
                "kilometers": "1487398.798402103",
                "miles": "924226.7563629014"
            },
            "orbiting_body": "Moon"
        },
        {
            "close_approach_date": "2020-06-06",
            "close_approach_date_full": "2020-Jun-06 19:16",
            "epoch_date_close_approach": 1591470960000,
            "relative_velocity": {
                "kilometers_per_second": "15.4489030669",
                "kilometers_per_hour": "55616.0510409534",
                "miles_per_hour": "34557.6512704191"
            },
            "miss_distance": {
                "astronomical": "0.009575301",
                "lunar": "3.724792089",
                "kilometers": "1432444.63420887",
                "miles": "890079.822147606"
            },
            "orbiting_body": "Earth"
        },
        {
            "close_approach_date": "2020-11-10",
            "close_approach_date_full": "2020-Nov-10 16:55",
            "epoch_date_close_approach": 1605027300000,
            "relative_velocity": {
                "kilometers_per_second": "13.1326710827",
                "kilometers_per_hour": "47277.6158975908",
                "miles_per_hour": "29376.4719448113"
            },
            "miss_distance": {
                "astronomical": "0.4615168062",
                "lunar": "179.5300376118",
                "kilometers": "69041931.176722794",
                "miles": "42900666.7028667972"
            },
            "orbiting_body": "Earth"
        },
        {
            "close_approach_date": "2045-07-04",
            "close_approach_date_full": "2045-Jul-04 18:02",
            "epoch_date_close_approach": 2382804120000,
            "relative_velocity": {
                "kilometers_per_second": "10.8532568832",
                "kilometers_per_hour": "39071.7247796302",
                "miles_per_hour": "24277.6503220985"
            },
            "miss_distance": {
                "astronomical": "0.0878919082",
                "lunar": "34.1899522898",
                "kilometers": "13148442.256955534",
                "miles": "8170063.1676090092"
            },
            "orbiting_body": "Mars"
        }
    ],
    "orbital_data": {
        "orbit_id": "3",
        "orbit_determination_date": "2020-07-14 06:40:17",
        "first_observation_date": "2020-06-01",
        "last_observation_date": "2020-06-06",
        "data_arc_in_days": 5,
        "observations_used": 31,
        "orbit_uncertainty": "8",
        "minimum_orbit_intersection": ".00276939",
        "jupiter_tisserand_invariant": "4.621",
        "epoch_osculation": "2459003.5",
        "eccentricity": ".329705261197913",
        "semi_major_axis": "1.393139783034675",
        "inclination": "24.89989956871858",
        "ascending_node_longitude": "76.9478870517535",
        "orbital_period": "600.607108908321",
        "perihelion_distance": ".9338142669840235",
        "perihelion_argument": "226.4495863595319",
        "aphelion_distance": "1.852465299085326",
        "perihelion_time": "2459046.451027868937",
        "mean_anomaly": "334.2554328720449",
        "mean_motion": ".5993935047727712",
        "equinox": "J2000",
        "orbit_class": {
            "orbit_class_type": "APO",
            "orbit_class_description": "Near-Earth asteroid orbits which cross the Earth’s orbit similar to that of 1862 Apollo",
            "orbit_class_range": "a (semi-major axis) > 1.0 AU; q (perihelion) < 1.017 AU"
        }
    },
    "is_sentry_object": false
}